[{"OBJECT_NAME":"STARLINK-1394","OBJECT_ID":"2020-035Y","EPOCH":"2026-03-09T07:04:11.880480","MEAN_MOTION":15.49750086,"ECCENTRICITY":0.00028708,"INCLINATION":53.0499,"RA_OF_ASC_NODE":38.4615,"ARG_OF_PERICENTER":117.7699,"MEAN_ANOMALY":242.36,"EPHEMERIS_TYPE":0,"CLASSIFICATION_TYPE":"U","NORAD_CAT_ID":45679,"ELEMENT_SET_NO":999,"REV_AT_EPOCH":31909,"BSTAR":0.0016490393,"MEAN_MOTION_DOT":0.0009384,"MEAN_MOTION_DDOT":0},{"OBJECT_NAME":"SONATE-2","OBJECT_ID":"2024-043Q","EPOCH":"2026-03-09T22:01:02.618688","MEAN_MOTION":15.51375867,"ECCENTRICITY":0.00078362,"INCLINATION":97.5397,"RA_OF_ASC_NODE":213.8574,"ARG_OF_PERICENTER":203.8793,"MEAN_ANOMALY":156.2096,"EPHEMERIS_TYPE":0,"CLASSIFICATION_TYPE":"U","NORAD_CAT_ID":59112,"ELEMENT_SET_NO":999,"REV_AT_EPOCH":11246,"BSTAR":0.00067640221,"MEAN_MOTION_DOT":0.00039886,"MEAN_MOTION_DDOT":0}]
